BEIDOU-2 IGSO-5 (C10)   
1 37948U 11073A   25327.80679956 -.00000152  00000+0  00000+0 0  9999
2 37948  48.0570 274.0915 0108040 222.1871 309.0350  1.00251489 51074
BEIDOU-2 G5 (C05)       
1 38091U 12008A   25328.16766593  .00000077  00000+0  00000+0 0  9997
2 38091   3.0602  70.7658 0011569 225.1858 246.5111  1.00270627 50314
BEIDOU-2 M3 (C11)       
1 38250U 12018A   25328.07063976 -.00000048  00000+0  00000+0 0  9999
2 38250  55.9361 311.7853 0024660 272.6763  87.0383  1.86229932 92123
BEIDOU-2 M4 (C12)       
1 38251U 12018B   25328.00266904 -.00000048  00000+0  00000+0 0  9999
2 38251  55.8377 311.0181 0015766 275.3565  84.4599  1.86229625 92123
BEIDOU-2 M6 (C14)       
1 38775U 12050B   25326.63976760 -.00000034  00000+0  00000+0 0  9996
2 38775  56.3615  69.7346 0010655 348.1714  11.8019  1.86230919 89464
BEIDOU-2 G6 (C02)       
1 38953U 12059A   25327.95864757 -.00000156  00000+0  00000+0 0  9996
2 38953   3.8987  75.6872 0007103 295.3338 121.3154  1.00273541 47858
BEIDOU-3S M2S (C58)     
1 40748U 15037A   25326.05990611 -.00000061  00000+0  00000+0 0  9994
2 40748  55.0571 309.1739 0012669 265.5048  94.3419  1.86229239 70261
BEIDOU-3S M1S (C57)     
1 40749U 15037B   25326.82970226 -.00000055  00000+0  00000+0 0  9993
2 40749  55.0532 309.1371 0003237 354.0501   5.9388  1.86254032 70284
BEIDOU-3S IGSO-2S (C56) 
1 40938U 15053A   25327.78717850 -.00000133  00000+0  00000+0 0  9996
2 40938  49.5434 261.2322 0060856 189.2568 352.0698  1.00274681 37290
BEIDOU-2 IGSO-6 (C13)   
1 41434U 16021A   25327.72041851 -.00000139  00000+0  00000+0 0  9995
2 41434  59.9373  40.0919 0059169 230.6348 144.1081  1.00258711 35421
BEIDOU-2 G7 (C03)       
1 41586U 16037A   25325.66520297 -.00000332  00000+0  00000+0 0  9992
2 41586   1.7034  67.5384 0005264 332.6575  10.7439  1.00268968  4808
