[
    {
        "OBJECT_NAME": "BEIDOU-2 IGSO-5",
        "OBJECT_ID": "2011-073A",
        "EPOCH": "2025-11-23T19:21:47.481984",
        "MEAN_MOTION": 1.00251489,
        "ECCENTRICITY": 0.010804,
        "INCLINATION": 48.057,
        "RA_OF_ASC_NODE": 274.0915,
        "ARG_OF_PERICENTER": 222.1871,
        "MEAN_ANOMALY": 309.035,
        "EPHEMERIS_TYPE": 0,
        "CLASSIFICATION_TYPE": "U",
        "NORAD_CAT_ID": 37948,
        "ELEMENT_SET_NO": 999,
        "REV_AT_EPOCH": 5107,
        "BSTAR": 0,
        "MEAN_MOTION_DOT": -1.52e-06,
        "MEAN_MOTION_DDOT": 0
    },
    {
        "OBJECT_NAME": "BEIDOU-2 G5",
        "OBJECT_ID": "2012-008A",
        "EPOCH": "2025-11-24T04:01:26.336352",
        "MEAN_MOTION": 1.00270627,
        "ECCENTRICITY": 0.0011569,
        "INCLINATION": 3.0602,
        "RA_OF_ASC_NODE": 70.7658,
        "ARG_OF_PERICENTER": 225.1858,
        "MEAN_ANOMALY": 246.5111,
        "EPHEMERIS_TYPE": 0,
        "CLASSIFICATION_TYPE": "U",
        "NORAD_CAT_ID": 38091,
        "ELEMENT_SET_NO": 999,
        "REV_AT_EPOCH": 5031,
        "BSTAR": 0,
        "MEAN_MOTION_DOT": 7.7e-07,
        "MEAN_MOTION_DDOT": 0
    },
    {
        "OBJECT_NAME": "BEIDOU-2 M3",
        "OBJECT_ID": "2012-018A",
        "EPOCH": "2025-11-24T01:41:43.275264",
        "MEAN_MOTION": 1.86229932,
        "ECCENTRICITY": 0.002466,
        "INCLINATION": 55.9361,
        "RA_OF_ASC_NODE": 311.7853,
        "ARG_OF_PERICENTER": 272.6763,
        "MEAN_ANOMALY": 87.0383,
        "EPHEMERIS_TYPE": 0,
        "CLASSIFICATION_TYPE": "U",
        "NORAD_CAT_ID": 38250,
        "ELEMENT_SET_NO": 999,
        "REV_AT_EPOCH": 9212,
        "BSTAR": 0,
        "MEAN_MOTION_DOT": -4.8e-07,
        "MEAN_MOTION_DDOT": 0
    },
    {
        "OBJECT_NAME": "BEIDOU-2 M4",
        "OBJECT_ID": "2012-018B",
        "EPOCH": "2025-11-24T00:03:50.605056",
        "MEAN_MOTION": 1.86229625,
        "ECCENTRICITY": 0.0015766,
        "INCLINATION": 55.8377,
        "RA_OF_ASC_NODE": 311.0181,
        "ARG_OF_PERICENTER": 275.3565,
        "MEAN_ANOMALY": 84.4599,
        "EPHEMERIS_TYPE": 0,
        "CLASSIFICATION_TYPE": "U",
        "NORAD_CAT_ID": 38251,
        "ELEMENT_SET_NO": 999,
        "REV_AT_EPOCH": 9212,
        "BSTAR": 0,
        "MEAN_MOTION_DOT": -4.8e-07,
        "MEAN_MOTION_DDOT": 0
    },
    {
        "OBJECT_NAME": "BEIDOU-2 M6",
        "OBJECT_ID": "2012-050B",
        "EPOCH": "2025-11-22T15:21:15.920640",
        "MEAN_MOTION": 1.86230919,
        "ECCENTRICITY": 0.00106552,
        "INCLINATION": 56.3615,
        "RA_OF_ASC_NODE": 69.7346,
        "ARG_OF_PERICENTER": 348.1714,
        "MEAN_ANOMALY": 11.8019,
        "EPHEMERIS_TYPE": 0,
        "CLASSIFICATION_TYPE": "U",
        "NORAD_CAT_ID": 38775,
        "ELEMENT_SET_NO": 999,
        "REV_AT_EPOCH": 8946,
        "BSTAR": 0,
        "MEAN_MOTION_DOT": -3.4e-07,
        "MEAN_MOTION_DDOT": 0
    },
    {
        "OBJECT_NAME": "BEIDOU-2 G6",
        "OBJECT_ID": "2012-059A",
        "EPOCH": "2025-11-23T23:00:27.150048",
        "MEAN_MOTION": 1.00273541,
        "ECCENTRICITY": 0.0007103,
        "INCLINATION": 3.8987,
        "RA_OF_ASC_NODE": 75.6872,
        "ARG_OF_PERICENTER": 295.3338,
        "MEAN_ANOMALY": 121.3154,
        "EPHEMERIS_TYPE": 0,
        "CLASSIFICATION_TYPE": "U",
        "NORAD_CAT_ID": 38953,
        "ELEMENT_SET_NO": 999,
        "REV_AT_EPOCH": 4785,
        "BSTAR": 0,
        "MEAN_MOTION_DOT": -1.56e-06,
        "MEAN_MOTION_DDOT": 0
    },
    {
        "OBJECT_NAME": "BEIDOU-3S M2S",
        "OBJECT_ID": "2015-037A",
        "EPOCH": "2025-11-22T01:26:15.887904",
        "MEAN_MOTION": 1.86229239,
        "ECCENTRICITY": 0.0012669,
        "INCLINATION": 55.0571,
        "RA_OF_ASC_NODE": 309.1739,
        "ARG_OF_PERICENTER": 265.5048,
        "MEAN_ANOMALY": 94.3419,
        "EPHEMERIS_TYPE": 0,
        "CLASSIFICATION_TYPE": "U",
        "NORAD_CAT_ID": 40748,
        "ELEMENT_SET_NO": 999,
        "REV_AT_EPOCH": 7026,
        "BSTAR": 0,
        "MEAN_MOTION_DOT": -6.1e-07,
        "MEAN_MOTION_DDOT": 0
    },
    {
        "OBJECT_NAME": "BEIDOU-3S M1S",
        "OBJECT_ID": "2015-037B",
        "EPOCH": "2025-11-22T19:54:46.275264",
        "MEAN_MOTION": 1.86254032,
        "ECCENTRICITY": 0.00032372,
        "INCLINATION": 55.0532,
        "RA_OF_ASC_NODE": 309.1371,
        "ARG_OF_PERICENTER": 354.0501,
        "MEAN_ANOMALY": 5.9388,
        "EPHEMERIS_TYPE": 0,
        "CLASSIFICATION_TYPE": "U",
        "NORAD_CAT_ID": 40749,
        "ELEMENT_SET_NO": 999,
        "REV_AT_EPOCH": 7028,
        "BSTAR": 0,
        "MEAN_MOTION_DOT": -5.5e-07,
        "MEAN_MOTION_DDOT": 0
    },
    {
        "OBJECT_NAME": "BEIDOU-3S IGSO-2S",
        "OBJECT_ID": "2015-053A",
        "EPOCH": "2025-11-23T18:53:32.222400",
        "MEAN_MOTION": 1.00274681,
        "ECCENTRICITY": 0.0060856,
        "INCLINATION": 49.5434,
        "RA_OF_ASC_NODE": 261.2322,
        "ARG_OF_PERICENTER": 189.2568,
        "MEAN_ANOMALY": 352.0698,
        "EPHEMERIS_TYPE": 0,
        "CLASSIFICATION_TYPE": "U",
        "NORAD_CAT_ID": 40938,
        "ELEMENT_SET_NO": 999,
        "REV_AT_EPOCH": 3729,
        "BSTAR": 0,
        "MEAN_MOTION_DOT": -1.33e-06,
        "MEAN_MOTION_DDOT": 0
    },
    {
        "OBJECT_NAME": "BEIDOU-2 IGSO-6",
        "OBJECT_ID": "2016-021A",
        "EPOCH": "2025-11-23T17:17:24.159264",
        "MEAN_MOTION": 1.00258711,
        "ECCENTRICITY": 0.0059169,
        "INCLINATION": 59.9373,
        "RA_OF_ASC_NODE": 40.0919,
        "ARG_OF_PERICENTER": 230.6348,
        "MEAN_ANOMALY": 144.1081,
        "EPHEMERIS_TYPE": 0,
        "CLASSIFICATION_TYPE": "U",
        "NORAD_CAT_ID": 41434,
        "ELEMENT_SET_NO": 999,
        "REV_AT_EPOCH": 3542,
        "BSTAR": 0,
        "MEAN_MOTION_DOT": -1.39e-06,
        "MEAN_MOTION_DDOT": 0
    },
    {
        "OBJECT_NAME": "BEIDOU-2 G7",
        "OBJECT_ID": "2016-037A",
        "EPOCH": "2025-11-21T15:57:53.536608",
        "MEAN_MOTION": 1.00268968,
        "ECCENTRICITY": 0.00052647,
        "INCLINATION": 1.7034,
        "RA_OF_ASC_NODE": 67.5384,
        "ARG_OF_PERICENTER": 332.6575,
        "MEAN_ANOMALY": 10.7439,
        "EPHEMERIS_TYPE": 0,
        "CLASSIFICATION_TYPE": "U",
        "NORAD_CAT_ID": 41586,
        "ELEMENT_SET_NO": 999,
        "REV_AT_EPOCH": 480,
        "BSTAR": 0,
        "MEAN_MOTION_DOT": -3.32e-06,
        "MEAN_MOTION_DDOT": 0
    }
]